{
    "links": {
        "self": "http://www.neowsapp.com/rest/v1/neo/3752442?api_key=iIulBulltgU6a56xZRHN4H3l9WmuAYTsLGpBGhQ2"
    },
    "id": "3752442",
    "neo_reference_id": "3752442",
    "name": "(2016 HM3)",
    "designation": "2016 HM3",
    "nasa_jpl_url": "http://ssd.jpl.nasa.gov/sbdb.cgi?sstr=3752442",
    "absolute_magnitude_h": 25.5,
    "estimated_diameter": {
        "kilometers": {
            "estimated_diameter_min": 0.0211132445,
            "estimated_diameter_max": 0.0472106499
        },
        "meters": {
            "estimated_diameter_min": 21.113244479,
            "estimated_diameter_max": 47.2106498806
        },
        "miles": {
            "estimated_diameter_min": 0.0131191578,
            "estimated_diameter_max": 0.0293353287
        },
        "feet": {
            "estimated_diameter_min": 69.2691770164,
            "estimated_diameter_max": 154.8905885541
        }
    },
    "is_potentially_hazardous_asteroid": false,
    "close_approach_data": [
        {
            "close_approach_date": "2016-05-10",
            "close_approach_date_full": "2016-May-10 12:17",
            "epoch_date_close_approach": 1462882620000,
            "relative_velocity": {
                "kilometers_per_second": "6.8441314945",
                "kilometers_per_hour": "24638.8733802087",
                "miles_per_hour": "15309.6377400525"
            },
            "miss_distance": {
                "astronomical": "0.0691763178",
                "lunar": "26.9095876242",
                "kilometers": "10348629.797323086",
                "miles": "6430340.3772111468"
            },
            "orbiting_body": "Earth"
        }
    ],
    "orbital_data": {
        "orbit_id": "6",
        "orbit_determination_date": "2017-04-06 08:26:21",
        "first_observation_date": "2016-04-27",
        "last_observation_date": "2016-05-05",
        "data_arc_in_days": 8,
        "observations_used": 36,
        "orbit_uncertainty": "8",
        "minimum_orbit_intersection": ".0583324",
        "jupiter_tisserand_invariant": "3.379",
        "epoch_osculation": "2457507.5",
        "eccentricity": ".5362437153870205",
        "semi_major_axis": "2.306091881785923",
        "inclination": "2.160726285966469",
        "ascending_node_longitude": "43.70029733010065",
        "orbital_period": "1279.126031235235",
        "perihelion_distance": "1.069464603073194",
        "perihelion_argument": "195.3444156156659",
        "aphelion_distance": "3.542719160498653",
        "perihelion_time": "2457525.732035411577",
        "mean_anomaly": "354.868736474834",
        "mean_motion": ".2814421653606352",
        "equinox": "J2000",
        "orbit_class": {
            "orbit_class_type": "AMO",
            "orbit_class_description": "Near-Earth asteroid orbits similar to that of 1221 Amor",
            "orbit_class_range": "1.017 AU < q (perihelion) < 1.3 AU"
        }
    },
    "is_sentry_object": false
}